{"type":"FeatureCollection","features":[{"type":"Feature","geometry":{"type":"Polygon","coordinates":[[[-56.158560150761325,-3.304072182221996],[-56.16747079676959,-3.30406951511968],[-56.16747823092818,-3.295136178703496],[-56.158567673062905,-3.295128658544431],[-56.158560150761325,-3.304072182221996]]]},"properties":{"Id":0,"UT":"UT-06","AREA":97.8223047039,"BLOCO":"A"}},{"type":"Feature","geometry":{"type":"Polygon","coordinates":[[[-56.14964952512778,-3.3040747690223204],[-56.158560150761325,-3.304072182221996],[-56.158567673062905,-3.295128658544431],[-56.14965713575351,-3.2951210583480304],[-56.14964952512778,-3.3040747690223204]]]},"properties":{"Id":0,"UT":"UT-07","AREA":97.9340179717,"BLOCO":"A"}},{"type":"Feature","geometry":{"type":"Polygon","coordinates":[[[-56.14772206345974,-3.303268620486718],[-56.148044258229156,-3.304075226503797],[-56.14964952512778,-3.3040747690223204],[-56.14965713575351,-3.2951210583480304],[-56.149664727170986,-3.2861655071087177],[-56.14527957673925,-3.286161747657876],[-56.14512578231872,-3.287176790229124],[-56.14512578428552,-3.288320981017362],[-56.14512578418839,-3.2909874076556664],[-56.14621615795401,-3.2939314216992144],[-56.146566234694696,-3.295118403279012],[-56.14698186948121,-3.296527665993347],[-56.14746344535432,-3.2988729418362404],[-56.14773832019813,-3.3004161544535284],[-56.147545659897695,-3.3029564098387394],[-56.14772206345974,-3.303268620486718]]]},"properties":{"Id":0,"UT":"UT-05","AREA":70.6463184354,"BLOCO":"A"}},{"type":"Feature","geometry":{"type":"Polygon","coordinates":[[[-56.176388809131666,-3.295143618824315],[-56.18526667477222,-3.2951509520155615],[-56.18528056493207,-3.286195324779991],[-56.17639616196953,-3.2861880061401916],[-56.176388809131666,-3.295143618824315]]]},"properties":{"Id":0,"UT":"UT-01","AREA":97.6863539707,"BLOCO":"A"}},{"type":"Feature","geometry":{"type":"Polygon","coordinates":[[[-56.16747823092818,-3.295136178703496],[-56.176388809131666,-3.295143618824315],[-56.17639616196953,-3.2861880061401916],[-56.16748566329348,-3.2861805862829874],[-56.16747823092818,-3.295136178703496]]]},"properties":{"Id":0,"UT":"UT-02","AREA":98.0099999998,"BLOCO":"A"}},{"type":"Feature","geometry":{"type":"Polygon","coordinates":[[[-56.158567673062905,-3.295128658544431],[-56.16747823092818,-3.295136178703496],[-56.16748566329348,-3.2861805862829874],[-56.158575184954756,-3.286173086605527],[-56.158567673062905,-3.295128658544431]]]},"properties":{"Id":0,"UT":"UT-03","AREA":98.01,"BLOCO":"A"}},{"type":"Feature","geometry":{"type":"Polygon","coordinates":[[[-56.14965713575351,-3.2951210583480304],[-56.158567673062905,-3.295128658544431],[-56.158575184954756,-3.286173086605527],[-56.14966472717099,-3.2861655071087177],[-56.14965713575351,-3.2951210583480304]]]},"properties":{"Id":0,"UT":"UT-04","AREA":98.0099999998,"BLOCO":"A"}},{"type":"Feature","geometry":{"type":"Polygon","coordinates":[[[-56.17639616196953,-3.2861880061401916],[-56.18528056493207,-3.286195324779991],[-56.18529443507125,-3.2772396958897816],[-56.176403494687676,-3.27723239183074],[-56.17639616196953,-3.2861880061401916]]]},"properties":{"Id":0,"UT":"UT-09","AREA":97.7591317926,"BLOCO":"A"}},{"type":"Feature","geometry":{"type":"Polygon","coordinates":[[[-56.16748566329348,-3.2861805862829874],[-56.17639616196953,-3.2861880061401916],[-56.176403494687676,-3.27723239183074],[-56.16749307532147,-3.277224992236806],[-56.16748566329348,-3.2861805862829874]]]},"properties":{"Id":0,"UT":"UT-10","AREA":98.0100000003,"BLOCO":"A"}},{"type":"Feature","geometry":{"type":"Polygon","coordinates":[[[-56.158575184954756,-3.286173086605527],[-56.16748566329348,-3.2861805862829874],[-56.16749307532147,-3.277224992236806],[-56.158582676291665,-3.2772175130406005],[-56.158575184954756,-3.286173086605527]]]},"properties":{"Id":0,"UT":"UT-11","AREA":98.0100000006,"BLOCO":"A"}},{"type":"Feature","geometry":{"type":"Polygon","coordinates":[[[-56.14966472717099,-3.2861655071087177],[-56.158575184954756,-3.286173086605527],[-56.158582676291665,-3.2772175130406005],[-56.149672297815926,-3.277209954243029],[-56.14966472717099,-3.2861655071087177]]]},"properties":{"Id":0,"UT":"UT-12","AREA":98.0100000003,"BLOCO":"A"}},{"type":"Feature","geometry":{"type":"Polygon","coordinates":[[[-56.14527957673925,-3.286161747657876],[-56.149664727170986,-3.2861655071087177],[-56.149672297815926,-3.277209954243029],[-56.14967984768923,-3.268254399755464],[-56.14498380071308,-3.268250394956609],[-56.14502121244454,-3.2694246448762834],[-56.14589601241861,-3.273227287099569],[-56.14669707936839,-3.2772074125930724],[-56.146862395634045,-3.2780287900850023],[-56.14705563477763,-3.27935529079414],[-56.1470246089919,-3.2795441052942715],[-56.14656972088247,-3.2812401318874964],[-56.1460798576416,-3.2829227404443357],[-56.14566935082374,-3.2835892227867483],[-56.14527957673925,-3.286161747657876]]]},"properties":{"Id":0,"UT":"UT-13","AREA":80.1454990365,"BLOCO":"A"}},{"type":"Feature","geometry":{"type":"Polygon","coordinates":[[[-56.17641080728698,-3.268276775900456],[-56.17640349468767,-3.27723239183074],[-56.185294435071256,-3.2772396958897816],[-56.18529664684719,-3.275810406924903],[-56.18531777067995,-3.2724928902550396],[-56.183377812928946,-3.2713949984289488],[-56.18297320506906,-3.2716284830276625],[-56.18261588002752,-3.271777782001862],[-56.181901399529856,-3.271866952357785],[-56.18139550571929,-3.2716870288553688],[-56.18121729255293,-3.2712081923543392],[-56.18112835648896,-3.2707593489474522],[-56.180176299119054,-3.2701602043150393],[-56.179432710094986,-3.2694415594684707],[-56.178689243794686,-3.268573323789609],[-56.17847875750002,-3.268278477175101],[-56.17800538460479,-3.267615381612046],[-56.17750003027502,-3.266777258983979],[-56.176964615205115,-3.266298128079661],[-56.17641257134,-3.266112673686133],[-56.17641080728698,-3.268276775900456]]]},"properties":{"Id":0,"UT":"UT-17","AREA":78.6076580332,"BLOCO":"A"}},{"type":"Feature","geometry":{"type":"Polygon","coordinates":[[[-56.16749307532147,-3.277224992236806],[-56.176403494687676,-3.27723239183074],[-56.176410807286985,-3.268276775900473],[-56.16750046701301,-3.2682693965694645],[-56.16749307532147,-3.277224992236806]]]},"properties":{"Id":0,"UT":"UT-16","AREA":98.0099999998,"BLOCO":"A"}},{"type":"Feature","geometry":{"type":"Polygon","coordinates":[[[-56.158582676291665,-3.2772175130406005],[-56.16749307532147,-3.277224992236806],[-56.16750046701301,-3.2682693965694645],[-56.15859014707454,-3.2682619378541666],[-56.158582676291665,-3.2772175130406005]]]},"properties":{"Id":0,"UT":"UT-15","AREA":98.01,"BLOCO":"A"}},{"type":"Feature","geometry":{"type":"Polygon","coordinates":[[[-56.149672297815926,-3.277209954243029],[-56.158582676291665,-3.2772175130406005],[-56.15859014707454,-3.2682619378541498],[-56.15404990108599,-3.268258106734911],[-56.14967984768923,-3.268254399755464],[-56.149672297815926,-3.277209954243029]]]},"properties":{"Id":0,"UT":"UT-14","AREA":98.01,"BLOCO":"A"}},{"type":"Feature","geometry":{"type":"Polygon","coordinates":[[[-56.14498380071308,-3.268250394956609],[-56.14967984768923,-3.268254399755464],[-56.15404990108599,-3.268258106734911],[-56.1540544371919,-3.262837677479331],[-56.1536995710783,-3.26284451096956],[-56.15297563330191,-3.262863046422722],[-56.15223277342356,-3.262728385599364],[-56.15181425488864,-3.2620195750739214],[-56.15168143068254,-3.261387596298448],[-56.15178348474638,-3.2606843604491687],[-56.151638251801494,-3.2605647234730326],[-56.15017293572027,-3.260544779301525],[-56.149686336125484,-3.2605381565995457],[-56.143174317207105,-3.2604494992621085],[-56.14384139041015,-3.2623957459053115],[-56.144561586669006,-3.2643949416092215],[-56.1446554958503,-3.265384115119168],[-56.144977411198695,-3.268049846763285],[-56.14498380071308,-3.268250394956609]]]},"properties":{"Id":0,"UT":"UT-19","AREA":86.3202691079,"BLOCO":"A"}},{"type":"Feature","geometry":{"type":"Polygon","coordinates":[[[-56.1540544371919,-3.262837677479331],[-56.15404990108599,-3.268258106734911],[-56.15859014707454,-3.2682619378541498],[-56.16750046701301,-3.2682693965694476],[-56.17641080728698,-3.268276775900456],[-56.17641257134,-3.266112673686116],[-56.17580402688146,-3.265908238004207],[-56.17488125790166,-3.2659074774637227],[-56.17357161742761,-3.2657867260098152],[-56.17276271521247,-3.265444032658601],[-56.17116091781682,-3.2656671308825995],[-56.16947715308023,-3.2656204591661004],[-56.16821636976601,-3.2648904295912047],[-56.16750331856448,-3.2648079230325093],[-56.16711276525876,-3.2647627322212274],[-56.16648183941433,-3.2650474610659814],[-56.16578781799857,-3.2653638311628415],[-56.165093403535586,-3.2661556235855977],[-56.16477779624713,-3.266472308413664],[-56.16439948645598,-3.2663452135347537],[-56.16380056582191,-3.2660594592568373],[-56.16323323428459,-3.2657103419386138],[-56.16139783699155,-3.2651803082854247],[-56.159969187870004,-3.2649996020971512],[-56.15859318670841,-3.264611117536615],[-56.1584812043888,-3.2645795016287016],[-56.15681472548832,-3.2640395760900596],[-56.15467248113527,-3.262900887174295],[-56.15456370822325,-3.262827870465127],[-56.1540544371919,-3.262837677479331]]]},"properties":{"Id":0,"UT":"UT-18","AREA":86.2859503828,"BLOCO":"A"}},{"type":"Feature","geometry":{"type":"Polygon","coordinates":[[[-56.14254904994545,-3.252489833820221],[-56.143036833691966,-3.2531664260075255],[-56.14318546236404,-3.2534058956081444],[-56.14324491890258,-3.253495699881156],[-56.14336383200772,-3.2536753084245853],[-56.14342293491436,-3.2541839623270943],[-56.143452195811705,-3.2547823443342994],[-56.14339228434594,-3.255231060991566],[-56.1433917030256,-3.2559191710739452],[-56.142974267506865,-3.2567565144266704],[-56.142587253672986,-3.2572078045400317],[-56.143174317207105,-3.2604494992621085],[-56.149686336125484,-3.2605381565995457],[-56.15017293572027,-3.260544779301525],[-56.14965072979975,-3.2590280569442016],[-56.14912760549024,-3.258118109168137],[-56.1490803411339,-3.257687251393026],[-56.14908078326797,-3.2571606968259603],[-56.148843537022465,-3.256107385735376],[-56.14903448320296,-3.25558099271433],[-56.14927289450977,-3.255246114366775],[-56.14941625435381,-3.2546718122017357],[-56.14951222876796,-3.253810257996823],[-56.14984633243449,-3.2529489052879],[-56.15018035521843,-3.252183289535232],[-56.15075258675839,-3.2513221375331165],[-56.15137268303482,-3.250173813345467],[-56.1517539294018,-3.24988692305108],[-56.1522786920233,-3.248834254699857],[-56.15208898779388,-3.24787672125584],[-56.15137544137204,-3.2468708775938406],[-56.150804453259845,-3.24624810334488],[-56.15037638257306,-3.245577580908264],[-56.14872791595619,-3.2448964537794223],[-56.147210278775106,-3.2443865656202395],[-56.1467639152893,-3.2442365981550974],[-56.14566250096382,-3.2443254181419907],[-56.14470956420331,-3.244833213123164],[-56.14411394371914,-3.245191721429466],[-56.143440580838465,-3.2456978714242966],[-56.143683107450244,-3.2463983612344873],[-56.143725643906684,-3.246786132874866],[-56.143696197609536,-3.2478200690081853],[-56.14365283845069,-3.2484088155416218],[-56.14352357137839,-3.2492128974622223],[-56.1433084202066,-3.2502035935315057],[-56.14312235279212,-3.2505911703270463],[-56.14284164354209,-3.2508314730409955],[-56.14254904994545,-3.252489833820221]]]},"properties":{"Id":0,"UT":"UT-08","AREA":136.847143091,"BLOCO":"A"}},{"type":"Feature","geometry":{"type":"Polygon","coordinates":[[[-56.156185015118595,-3.455446178962225],[-56.16106473878631,-3.4554800652752684],[-56.16112030860065,-3.4539433333676115],[-56.161175797626385,-3.453552142405301],[-56.16128300039762,-3.4520881670904795],[-56.16144804324209,-3.450433742598493],[-56.16150470416763,-3.449271930655134],[-56.16144402247817,-3.4484908094166324],[-56.161398250283035,-3.447901572555025],[-56.16151526505496,-3.446780911880169],[-56.16156870335709,-3.44661541602006],[-56.161716682709056,-3.4461571306191785],[-56.16223609249381,-3.444698163677428],[-56.16249645207479,-3.4441060752248216],[-56.16348015031027,-3.443061519914217],[-56.16414366337655,-3.4424851851323135],[-56.16501863101565,-3.4421319215673525],[-56.15619672155933,-3.442168977487969],[-56.15619281040811,-3.4466106479165526],[-56.156185015118595,-3.455446178962225]]]},"properties":{"Id":0,"AREA":91.3054109001,"UTS":"UT-20","BLOCO":"B"}},{"type":"Feature","geometry":{"type":"Polygon","coordinates":[[[-56.14736309025875,-3.455384852983143],[-56.156185015118595,-3.455446178962225],[-56.156192810408115,-3.4466106479165526],[-56.14737091934302,-3.4466027573809352],[-56.14736309025875,-3.455384852983143]]]},"properties":{"Id":0,"AREA":95.4305763681,"UTS":"UT-21","BLOCO":"B"}},{"type":"Feature","geometry":{"type":"Polygon","coordinates":[[[-56.13854118680859,-3.455323444999791],[-56.14736309025875,-3.455384852983143],[-56.14737091934302,-3.4466027573809352],[-56.13854904870106,-3.446594784804202],[-56.13854118680859,-3.455323444999791]]]},"properties":{"Id":0,"AREA":94.8519006162,"UTS":"UT-23","BLOCO":"B"}},{"type":"Feature","geometry":{"type":"Polygon","coordinates":[[[-56.12972028312581,-3.4541881577674367],[-56.12991321505837,-3.4545335632851693],[-56.13056951824078,-3.454916191483592],[-56.13087853777355,-3.455270040186509],[-56.13119019492766,-3.4552722130708933],[-56.13854118680859,-3.455323444999791],[-56.13854904870106,-3.446594784804202],[-56.12972719869347,-3.4465867301872977],[-56.12972028312581,-3.4541881577674367]]]},"properties":{"Id":0,"AREA":93.5563968719,"UTS":"UT-24","BLOCO":"B"}},{"type":"Feature","geometry":{"type":"Polygon","coordinates":[[[-56.122476787255934,-3.4359894631826746],[-56.129736808170875,-3.435996132824201],[-56.12973691008023,-3.435883642605674],[-56.12974326941831,-3.4288566946855465],[-56.12975127351468,-3.4199916744375316],[-56.12962043643736,-3.419991555287152],[-56.12960532837277,-3.4208376020261246],[-56.12730531604158,-3.4249376278182146],[-56.12649854543756,-3.4261477816504122],[-56.12570127111591,-3.4273202447467503],[-56.12408493501102,-3.4288515120232486],[-56.12390791040163,-3.4290192191699873],[-56.12372481253483,-3.4302093587903215],[-56.12370529384722,-3.4302376596167847],[-56.12368339316302,-3.4304785856598037],[-56.123530359834206,-3.4314732923914915],[-56.123547158003134,-3.431977178418561],[-56.12334811961464,-3.434166601543605],[-56.123185170686774,-3.434085125865366],[-56.12303650158879,-3.435076241887412],[-56.12254569368671,-3.4358770366495905],[-56.122476787255934,-3.4359894631826746]]]},"properties":{"Id":0,"AREA":80.6230079992,"UTS":"UT-30","BLOCO":"B"}},{"type":"Feature","geometry":{"type":"Polygon","coordinates":[[[-56.12972719869347,-3.4465867301872977],[-56.13854904870106,-3.446594784804202],[-56.13855701295139,-3.4377297471218524],[-56.12973524447823,-3.4377217132702222],[-56.12972719869347,-3.4465867301872977]]]},"properties":{"Id":0,"AREA":96.0400000003,"UTS":"UT-26","BLOCO":"B"}},{"type":"Feature","geometry":{"type":"Polygon","coordinates":[[[-56.12973524447823,-3.4377217132702222],[-56.13855701295139,-3.4377297471218524],[-56.138564956568274,-3.4288647077722696],[-56.12974326941833,-3.4288566946855465],[-56.12973524447823,-3.4377217132702222]]]},"properties":{"Id":0,"AREA":96.0400000002,"UTS":"UT-29","BLOCO":"B"}},{"type":"Feature","geometry":{"type":"Polygon","coordinates":[[[-56.12974326941833,-3.4288566946855465],[-56.138564956568274,-3.4288647077722696],[-56.13857287955266,-3.4199996667597135],[-56.12975127351469,-3.4199916744375316],[-56.12974326941833,-3.4288566946855465]]]},"properties":{"Id":0,"AREA":96.0400000002,"UTS":"UT-31","BLOCO":"B"}},{"type":"Feature","geometry":{"type":"Polygon","coordinates":[[[-56.14406343664622,-3.4422198086060622],[-56.138552986186504,-3.4422148253671474],[-56.13854904870105,-3.446594784804202],[-56.14737091934301,-3.4466027573809352],[-56.15619281040811,-3.4466106479165526],[-56.15619672155933,-3.442168977487969],[-56.15116632823736,-3.4421900706278024],[-56.14737483148882,-3.442205951267703],[-56.14406343664622,-3.4422198086060622]]]},"properties":{"Id":0,"AREA":95.3607892246,"UTS":"UT-22","BLOCO":"B"}},{"type":"Feature","geometry":{"type":"Polygon","coordinates":[[[-56.12975127351468,-3.4199916744375316],[-56.138572879552655,-3.4199996667597135],[-56.13858078190548,-3.411134624088449],[-56.13019054584305,-3.4111270441523707],[-56.12975678474059,-3.413874196379738],[-56.12971273221323,-3.4141531939608463],[-56.12975520368566,-3.4148468609148375],[-56.12970532556139,-3.415237567503604],[-56.12962043643736,-3.419991555287152],[-56.12975127351468,-3.4199916744375316]]]},"properties":{"Id":0,"AREA":95.8796222716,"UTS":"UT-33","BLOCO":"B"}},{"type":"Feature","geometry":{"type":"Polygon","coordinates":[[[-56.13858078190548,-3.411134624088449],[-56.14640557253905,-3.4111416269820536],[-56.14583911589472,-3.410000598421855],[-56.14528658153446,-3.4084096145486225],[-56.14410125915814,-3.4064999657048585],[-56.14228107590238,-3.40352073151151],[-56.14199234927274,-3.402272625858556],[-56.14181081082805,-3.4014878718532873],[-56.14197132783344,-3.3989432309563727],[-56.14213107003666,-3.397273357557983],[-56.14221181575243,-3.395444364049516],[-56.14307100800951,-3.393408525274569],[-56.138596524720235,-3.3934045337870087],[-56.13858866362771,-3.4022695797628044],[-56.13858078190548,-3.411134624088449]]]},"properties":{"Id":0,"AREA":99.5509333589,"UTS":"UT-36","BLOCO":"B"}},{"type":"Feature","geometry":{"type":"Polygon","coordinates":[[[-56.130190545843064,-3.4111270441523875],[-56.138580781905496,-3.411134624088466],[-56.13858866362771,-3.4022695797628044],[-56.12989268345252,-3.4022617426177653],[-56.13020532304273,-3.4027374963983497],[-56.13103018058356,-3.405362039317844],[-56.131305331134875,-3.406237514780725],[-56.13099010962138,-3.4075929677614143],[-56.13027905713567,-3.410566469377757],[-56.130190545843064,-3.4111270441523875]]]},"properties":{"Id":0,"AREA":85.7976117547,"UTS":"UT-35","BLOCO":"B"}},{"type":"Feature","geometry":{"type":"Polygon","coordinates":[[[-56.12976739009945,-3.4020710795439286],[-56.12989268345252,-3.4022617426177653],[-56.13858866362771,-3.4022695797628044],[-56.13859652472024,-3.3934045337870087],[-56.12977516075094,-3.3933966037562664],[-56.12976739009945,-3.4020710795439286]]]},"properties":{"Id":0,"AREA":96.025319842,"UTS":"UT-37","BLOCO":"B"}},{"type":"Feature","geometry":{"type":"Polygon","coordinates":[[[-56.127905305687854,-3.399237475217253],[-56.129767390099445,-3.4020710795439113],[-56.12977516075093,-3.3933966037562664],[-56.12978308148188,-3.384531576897705],[-56.12730999953139,-3.384529345041285],[-56.127305293859344,-3.3845373901583797],[-56.12400527453096,-3.385937399582827],[-56.12387616424744,-3.3860584396858564],[-56.12263365840689,-3.3869696117343584],[-56.122527775166965,-3.3873225565158025],[-56.122405264504195,-3.3874374091941237],[-56.122452605763584,-3.3875731181007924],[-56.122350494290814,-3.3879134884079063],[-56.12386069657759,-3.391688984812513],[-56.1246767180727,-3.393391983633005],[-56.12470286757069,-3.3934465563379423],[-56.12600529164167,-3.3962374601073],[-56.12631906365828,-3.3967328878554937],[-56.12735303836411,-3.3985792653302678],[-56.12785595676527,-3.3991595571342],[-56.127905305687854,-3.399237475217253]]]},"properties":{"Id":0,"AREA":95.5200294356,"UTS":"UT-38","BLOCO":"B"}},{"type":"Feature","geometry":{"type":"Polygon","coordinates":[[[-56.15014318395321,-3.3756846274954384],[-56.13861218501999,-3.375674436902119],[-56.13860690789797,-3.3816594731454024],[-56.138605640306,-3.383095523470448],[-56.14924344811817,-3.3831049502605897],[-56.14994532542383,-3.3824893468390878],[-56.14989505418998,-3.381669468200271],[-56.14988896885901,-3.38157022201911],[-56.14948970975607,-3.380593352601714],[-56.14897613573062,-3.379616382608757],[-56.14891932696711,-3.379214238899041],[-56.14886291856183,-3.3783525544294233],[-56.14897758688845,-3.3779505599220983],[-56.14920671818486,-3.377376338705514],[-56.14937909278113,-3.376342531250635],[-56.14983670853311,-3.3759408372321125],[-56.15014318395321,-3.3756846274954384]]]},"properties":{"Id":0,"AREA":98.1637413086,"UTS":"UT-42","BLOCO":"B"}},{"type":"Feature","geometry":{"type":"Polygon","coordinates":[[[-56.12977516075094,-3.3933966037562664],[-56.13859652472024,-3.3934045337870087],[-56.13860436518402,-3.3845394861653597],[-56.1297830814819,-3.384531576897705],[-56.12977516075094,-3.3933966037562664]]]},"properties":{"Id":0,"AREA":96.0400000002,"UTS":"UT-39","BLOCO":"B"}},{"type":"Feature","geometry":{"type":"Polygon","coordinates":[[[-56.12978308148188,-3.384531576897705],[-56.13860436518402,-3.3845394861653597],[-56.13861218501999,-3.375674436902119],[-56.1316865298086,-3.3756682503015165],[-56.130405313207866,-3.3792373568324248],[-56.12978685967192,-3.3802947197227105],[-56.12730999953139,-3.384529345041285],[-56.12978308148188,-3.384531576897705]]]},"properties":{"Id":0,"AREA":96.5634804376,"UTS":"UT-41","BLOCO":"B"}},{"type":"Feature","geometry":{"type":"Polygon","coordinates":[[[-56.14409748554297,-3.4303736156505273],[-56.13856361041675,-3.4303686284969217],[-56.138562291279754,-3.431841725416709],[-56.138562139071055,-3.4320116578614774],[-56.13856107768702,-3.4331963981282962],[-56.13855701295138,-3.4377297471218524],[-56.138552986186504,-3.4422148253671474],[-56.14406343664622,-3.4422198086060622],[-56.14407718225993,-3.437734732625329],[-56.14409107038469,-3.43320138589735],[-56.144094048697816,-3.4322289761896694],[-56.144094442061295,-3.4320166459878325],[-56.14409475687024,-3.4318467134425195],[-56.14409748554297,-3.4303736156505273]]]},"properties":{"Id":0,"AREA":80.3485944186,"UTS":"UT-28","BLOCO":"B"}},{"type":"Feature","geometry":{"type":"Polygon","coordinates":[[[-56.144993691596035,-3.418851534063172],[-56.13857390931044,-3.4188457709100963],[-56.138573253879166,-3.4195802602206626],[-56.13857313639543,-3.4197118980641883],[-56.13857300822615,-3.4198555029839475],[-56.138572879552655,-3.4199996667597135],[-56.13856495656827,-3.4288647077722696],[-56.13856381097676,-3.430144604871713],[-56.13856361041675,-3.4303686284969217],[-56.14409748554297,-3.4303736156505273],[-56.14409790046037,-3.4301495918925813],[-56.14410027072329,-3.4288696940342938],[-56.144112901665245,-3.4220452949418774],[-56.14408871503502,-3.420671235442405],[-56.14433806055364,-3.420004845984472],[-56.14439198486506,-3.41986073015287],[-56.14444570011618,-3.4197171729843614],[-56.14449493907832,-3.4195855789066303],[-56.14456465123115,-3.4193992689099666],[-56.144993691596035,-3.418851534063172]]]},"properties":{"Id":0,"AREA":79.1373171342,"UTS":"UT-32","BLOCO":"B"}},{"type":"Feature","geometry":{"type":"Polygon","coordinates":[[[-56.13857390931044,-3.4188457709100963],[-56.144993691596035,-3.418851534063172],[-56.145278456080064,-3.4184879886344413],[-56.14543612197573,-3.418286703812237],[-56.14616830232814,-3.4176295451854264],[-56.1469408775849,-3.416936128823473],[-56.14739814308048,-3.415888334094721],[-56.14749594462621,-3.41566422766149],[-56.147399090810154,-3.414814078518779],[-56.14726036330111,-3.4135963768891635],[-56.14670805028164,-3.411750914973618],[-56.14640557253905,-3.4111416269820367],[-56.13858078190548,-3.411134624088432],[-56.13857500038789,-3.417622735636858],[-56.13857423389897,-3.4184819717714126],[-56.13857390931044,-3.4188457709100963]]]},"properties":{"Id":0,"AREA":78.1092660041,"UTS":"UT-34","BLOCO":"B"}},{"type":"Feature","geometry":{"type":"Polygon","coordinates":[[[-56.12972990566532,-3.4436066938353136],[-56.121226211880014,-3.4435988588034188],[-56.12192170539146,-3.446579535112617],[-56.12200529127578,-3.446937758531989],[-56.122693766935924,-3.450317537373393],[-56.12328119651383,-3.450603024566417],[-56.1237301322088,-3.4509854619972633],[-56.12473187404545,-3.451542059209562],[-56.125975603476704,-3.452029418516295],[-56.12708106082152,-3.4525513806867343],[-56.1277716665545,-3.4532118747703686],[-56.12877341383102,-3.453768468876],[-56.129602676975104,-3.453977607686738],[-56.129720283125806,-3.4541881577674367],[-56.12972719869346,-3.4465867301872977],[-56.12972990566532,-3.4436066938353136]]]},"properties":{"Id":0,"AREA":80.5378523082,"UTS":"UT-25","BLOCO":"B"}},{"type":"Feature","geometry":{"type":"Polygon","coordinates":[[[-56.121226211880014,-3.4435988588034188],[-56.12972990566532,-3.4436066938353136],[-56.129735244478226,-3.4377217132702222],[-56.12973648073722,-3.4363575375670004],[-56.129736747457315,-3.4360631482734076],[-56.129736808170875,-3.435996132824201],[-56.122476787255934,-3.4359894631826746],[-56.12243573660771,-3.436056440687272],[-56.122255406897715,-3.4363506632571896],[-56.121419772253,-3.437714065559177],[-56.12140528387524,-3.437737704412908],[-56.12091166641195,-3.439712180913204],[-56.120630956790656,-3.4408350174364406],[-56.12060527967343,-3.4409377226254563],[-56.12090934892768,-3.4422408765169665],[-56.121226211880014,-3.4435988588034188]]]},"properties":{"Id":0,"AREA":79.8564718207,"UTS":"UT-27","BLOCO":"B"}},{"type":"Feature","geometry":{"type":"Polygon","coordinates":[[[-56.14924344811817,-3.3831049502605897],[-56.138605640306,-3.383095523470448],[-56.13860436518402,-3.3845394861653597],[-56.138596524720235,-3.3934045337870087],[-56.14307100800951,-3.393408525274569],[-56.14308410102769,-3.393377501535505],[-56.14435197324074,-3.3913905135809306],[-56.14554112701029,-3.3889263038701283],[-56.14688832853766,-3.3867008050577367],[-56.14742510362477,-3.3851945629258067],[-56.147655688400015,-3.3845475179318973],[-56.147681597199,-3.384474815053367],[-56.14924344811817,-3.3831049502605897]]]},"properties":{"Id":0,"AREA":93.0501667185,"UTS":"UT-40","BLOCO":"B"}},{"type":"Feature","geometry":{"type":"Polygon","coordinates":[[[-56.13861218501999,-3.375674436902119],[-56.15014318395321,-3.3756846274954384],[-56.15052310543169,-3.3753670173732955],[-56.150866502807204,-3.374850338594583],[-56.15103982315891,-3.3727251268720915],[-56.15078445732724,-3.3716947704184377],[-56.147436892631184,-3.371684812340944],[-56.13861572066349,-3.3716585164601107],[-56.13322644183132,-3.371642411558926],[-56.131833892999865,-3.3752630429275263],[-56.13181488963504,-3.3752994664671405],[-56.131797453823175,-3.3753592456033457],[-56.1316865298086,-3.3756682503015165],[-56.13861218501999,-3.375674436902119]]]},"properties":{"Id":0,"AREA":90.6403177859,"UTS":"UT-43","BLOCO":"B"}}]}