{"type": "FeatureCollection", "features": [{"type": "Feature", "geometry": {"type": "Polygon", "coordinates": [[[593479.946899415, 9634757.123085495], [592489.9468994131, 9634758.251502344], [592489.9468994131, 9635745.791381836], [593479.946899415, 9635745.791381836], [593479.946899415, 9634757.123085495]]]}, "properties": {"Id": 0, "UT": "UT-06", "AREA": 97.8223047039}}, {"type": "Feature", "geometry": {"type": "Polygon", "coordinates": [[[594469.9468994146, 9634755.994668648], [593479.946899415, 9634757.123085495], [593479.946899415, 9635745.791381836], [594469.9468994146, 9635745.791381836], [594469.9468994146, 9634755.994668648]]]}, "properties": {"Id": 0, "UT": "UT-07", "AREA": 97.9340179717}}, {"type": "Feature", "geometry": {"type": "Polygon", "coordinates": [[[594684.1710205078, 9634844.927734375], [594648.2976074219, 9634755.791381836], [594469.946899415, 9634755.994668648], [594469.946899415, 9635745.791381836], [594469.946899415, 9636735.791381834], [594957.1616497794, 9636735.791381834], [594974.1530761737, 9636623.567871094], [594974.0446167002, 9636497.08215332], [594973.79223633, 9636202.319335943], [594852.3676757812, 9635876.974121096], [594813.3601791374, 9635745.791381836], [594767.0479125986, 9635590.042602539], [594713.3208007822, 9635330.82763672], [594682.6350097666, 9635160.257873535], [594703.7996826181, 9634879.424560547], [594684.1710205078, 9634844.927734375]]]}, "properties": {"Id": 0, "UT": "UT-05", "AREA": 70.6463184354}}, {"type": "Feature", "geometry": {"type": "Polygon", "coordinates": [[[591499.9468994135, 9635745.791381836], [590513.5836159769, 9635745.791381836], [590512.8484864681, 9636735.791381834], [591499.9468994135, 9636735.791381834], [591499.9468994135, 9635745.791381836]]]}, "properties": {"Id": 0, "UT": "UT-01", "AREA": 97.6863539707}}, {"type": "Feature", "geometry": {"type": "Polygon", "coordinates": [[[592489.9468994131, 9635745.791381836], [591499.9468994135, 9635745.791381836], [591499.9468994135, 9636735.791381834], [592489.9468994131, 9636735.791381834], [592489.9468994131, 9635745.791381836]]]}, "properties": {"Id": 0, "UT": "UT-02", "AREA": 98.0099999998}}, {"type": "Feature", "geometry": {"type": "Polygon", "coordinates": [[[593479.946899415, 9635745.791381836], [592489.9468994131, 9635745.791381836], [592489.9468994131, 9636735.791381834], [593479.946899415, 9636735.791381834], [593479.946899415, 9635745.791381836]]]}, "properties": {"Id": 0, "UT": "UT-03", "AREA": 98.01}}, {"type": "Feature", "geometry": {"type": "Polygon", "coordinates": [[[594469.9468994146, 9635745.791381836], [593479.946899415, 9635745.791381836], [593479.946899415, 9636735.791381834], [594469.9468994146, 9636735.791381834], [594469.9468994146, 9635745.791381836]]]}, "properties": {"Id": 0, "UT": "UT-04", "AREA": 98.0099999998}}, {"type": "Feature", "geometry": {"type": "Polygon", "coordinates": [[[591499.9468994135, 9636735.791381834], [590512.8484864681, 9636735.791381834], [590512.1133569593, 9637725.791381838], [591499.9468994135, 9637725.791381838], [591499.9468994135, 9636735.791381834]]]}, "properties": {"Id": 0, "UT": "UT-09", "AREA": 97.7591317926}}, {"type": "Feature", "geometry": {"type": "Polygon", "coordinates": [[[592489.9468994131, 9636735.791381834], [591499.9468994135, 9636735.791381834], [591499.9468994135, 9637725.791381838], [592489.9468994131, 9637725.791381838], [592489.9468994131, 9636735.791381834]]]}, "properties": {"Id": 0, "UT": "UT-10", "AREA": 98.0100000003}}, {"type": "Feature", "geometry": {"type": "Polygon", "coordinates": [[[593479.946899415, 9636735.791381834], [592489.9468994131, 9636735.791381834], [592489.9468994131, 9637725.791381838], [593479.946899415, 9637725.791381838], [593479.946899415, 9636735.791381834]]]}, "properties": {"Id": 0, "UT": "UT-11", "AREA": 98.0100000006}}, {"type": "Feature", "geometry": {"type": "Polygon", "coordinates": [[[594469.9468994146, 9636735.791381834], [593479.946899415, 9636735.791381834], [593479.946899415, 9637725.791381838], [594469.9468994146, 9637725.791381838], [594469.9468994146, 9636735.791381834]]]}, "properties": {"Id": 0, "UT": "UT-12", "AREA": 98.0100000003}}, {"type": "Feature", "geometry": {"type": "Polygon", "coordinates": [[[594957.1616497794, 9636735.791381834], [594469.946899415, 9636735.791381834], [594469.946899415, 9637725.791381838], [594469.946899415, 9638715.791381838], [594991.7132920213, 9638715.791381838], [594987.4461059589, 9638585.986328129], [594889.8917236328, 9638165.702331547], [594800.5131980283, 9637725.791381838], [594782.0681762695, 9637635.007080082], [594760.4732055664, 9637488.386108398], [594763.9025878906, 9637467.510498049], [594814.2836914072, 9637279.97857666], [594868.5517578134, 9637093.926574707], [594914.0985717773, 9637020.21069336], [594957.1616497794, 9636735.791381834]]]}, "properties": {"Id": 0, "UT": "UT-13", "AREA": 80.1454990365}}, {"type": "Feature", "geometry": {"type": "Polygon", "coordinates": [[[591499.9468994141, 9638715.791381838], [591499.9468994141, 9637725.791381838], [590512.1133569591, 9637725.791381838], [590511.9960327158, 9637883.79211426], [590509.9468994141, 9638250.528381348], [590725.5865478525, 9638371.719543457], [590770.519958497, 9638345.872436523], [590810.2075195322, 9638329.335876467], [590889.5826416016, 9638319.413879395], [590945.8067626962, 9638339.25769043], [590965.6505126962, 9638392.174499512], [590975.5723266602, 9638441.78381348], [591081.4059448252, 9638507.92993164], [591164.0883178711, 9638587.305053711], [591246.7706909189, 9638683.21667481], [591270.1837486811, 9638715.791381838], [591322.8385620127, 9638789.050292969], [591379.0626220703, 9638881.654663086], [591438.5942382831, 9638934.571533205], [591499.9468994141, 9638955.022381539], [591499.9468994141, 9638715.791381838]]]}, "properties": {"Id": 0, "UT": "UT-17", "AREA": 78.6076580332}}, {"type": "Feature", "geometry": {"type": "Polygon", "coordinates": [[[592489.9468994131, 9637725.791381838], [591499.9468994135, 9637725.791381838], [591499.9468994135, 9638715.791381836], [592489.9468994131, 9638715.791381836], [592489.9468994131, 9637725.791381838]]]}, "properties": {"Id": 0, "UT": "UT-16", "AREA": 98.0099999998}}, {"type": "Feature", "geometry": {"type": "Polygon", "coordinates": [[[593479.946899415, 9637725.791381838], [592489.9468994131, 9637725.791381838], [592489.9468994131, 9638715.791381836], [593479.946899415, 9638715.791381836], [593479.946899415, 9637725.791381838]]]}, "properties": {"Id": 0, "UT": "UT-15", "AREA": 98.01}}, {"type": "Feature", "geometry": {"type": "Polygon", "coordinates": [[[594469.946899415, 9637725.791381838], [593479.946899415, 9637725.791381838], [593479.946899415, 9638715.791381838], [593984.4014388444, 9638715.791381838], [594469.946899415, 9638715.791381838], [594469.946899415, 9637725.791381838]]]}, "properties": {"Id": 0, "UT": "UT-14", "AREA": 98.01}}, {"type": "Feature", "geometry": {"type": "Polygon", "coordinates": [[[594991.7132920213, 9638715.791381838], [594469.946899415, 9638715.791381838], [593984.4014388444, 9638715.791381838], [593984.4014388444, 9639314.996946724], [594023.829233218, 9639314.208390832], [594104.262727417, 9639312.091719931], [594186.8128925171, 9639326.908416232], [594233.3796523185, 9639405.225239532], [594248.1963486178, 9639475.075379232], [594236.9227854842, 9639552.824667776], [594253.0704956055, 9639566.036437992], [594415.8810424805, 9639568.103942871], [594469.9468984399, 9639568.790428469], [595193.4950372521, 9639577.978024911], [595119.1946411142, 9639362.891296387], [595038.9870605478, 9639141.956298828], [595028.4600219736, 9639032.616027832], [594992.4420776386, 9638737.960571289], [594991.7132920213, 9638715.791381838]]]}, "properties": {"Id": 0, "UT": "UT-19", "AREA": 86.3202691079}}, {"type": "Feature", "geometry": {"type": "Polygon", "coordinates": [[[593984.4014388444, 9639314.996946724], [593984.4014388444, 9638715.791381838], [593479.946899415, 9638715.791381838], [592489.9468994131, 9638715.791381838], [591499.9468994141, 9638715.791381838], [591499.9468994141, 9638955.02238154], [591567.578918457, 9638977.566345215], [591670.1050415039, 9638977.566345215], [591815.626220705, 9638990.795349121], [591905.532104494, 9639028.604553223], [592083.482849123, 9639003.795593262], [592270.5653686523, 9639008.800598145], [592410.7141723642, 9639089.386169434], [592489.9468994131, 9639098.441347258], [592533.3443603525, 9639103.401062014], [592603.418762208, 9639071.867553717], [592680.5006103516, 9639036.830383299], [592757.582458498, 9638949.237365726], [592792.6196289062, 9638914.200195312], [592834.6642456064, 9638928.215026855], [592901.2349243164, 9638959.748535156], [592964.3016967764, 9638998.289428711], [593168.2766723633, 9639056.712402344], [593327.0269165048, 9639076.55621338], [593479.946899415, 9639119.373684427], [593492.3919067383, 9639122.858276369], [593677.6004028339, 9639182.389648441], [593915.7260131836, 9639308.067077637], [593927.818319682, 9639316.128609106], [593984.4014388444, 9639314.996946724]]]}, "properties": {"Id": 0, "UT": "UT-18", "AREA": 86.2859503828}}, {"type": "Feature", "geometry": {"type": "Polygon", "coordinates": [[[595263.7156139016, 9640457.828161743], [595209.4547939012, 9640383.079618296], [595192.918302496, 9640356.621232044], [595186.3037059326, 9640346.699337203], [595173.0745128086, 9640326.855547516], [595166.4599162452, 9640270.631476734], [595163.1526179649, 9640204.485511107], [595169.7672145264, 9640154.87603689], [595169.7672145264, 9640078.808176422], [595216.0693904627, 9639986.203824542], [595259.0276490981, 9639936.278951792], [595193.4950372521, 9639577.978024911], [594469.9468984399, 9639568.790428469], [594415.8810424805, 9639568.103942871], [594474.0439480804, 9639735.722281905], [594532.2523978297, 9639836.264149657], [594537.5440750783, 9639883.88924491], [594537.5440750783, 9639942.097694656], [594564.00246133, 9640058.514594156], [594542.8357523298, 9640116.723043907], [594516.3773660809, 9640153.764784662], [594500.5023343293, 9640217.264911657], [594489.9189798301, 9640312.51510216], [594452.8772390811, 9640407.76529266], [594415.8354983293, 9640492.432128659], [594352.3353713294, 9640587.682319159], [594283.5435670782, 9640714.682573164], [594241.2101490805, 9640746.432636661], [594183.0016993284, 9640862.849536162], [594204.1684083287, 9640968.683081161], [594283.5435670782, 9641079.808303416], [594347.0436940808, 9641148.600107662], [594394.668789329, 9641222.683589162], [594577.8931141123, 9641297.825406117], [594746.565326456, 9641354.049476897], [594796.1748006763, 9641370.585968303], [594918.5448370818, 9641360.664073458], [595024.3783820821, 9641304.440002676], [595090.5243477086, 9641264.7524233], [595165.2944230242, 9641208.736288833], [595138.2817348894, 9641131.322781444], [595133.5192253646, 9641088.46019572], [595136.6942317141, 9640974.159967117], [595141.456741239, 9640909.072336946], [595155.7442698143, 9640820.17215914], [595179.5568174403, 9640710.634440066], [595200.1943587139, 9640667.771854347], [595231.3613028079, 9640641.180897798], [595263.7156139016, 9640457.828161743]]]}, "properties": {"Id": 0, "UT": "UT-08", "AREA": 136.847143091}}]}